13-May-2025 00:18:52
1 48274U 21035A   25132.59679063  .00031277  00000+0  35353-3 0  9995
2 48274  41.4647 236.9826 0006448 258.5063 101.5052 15.61760286230595
